ADRAS-J                 
1 58992U 24034A   24156.78687978  .00005086  00000+0  47472-3 0  9999
2 58992  98.2105 129.2476 0045597  89.8541 270.7902 14.93880508 16017
